[{"OBJECT_NAME":"STARLINK-3363","OBJECT_ID":"2022-005AH","EPOCH":"2026-03-09T21:59:19.786272","MEAN_MOTION":15.08825601,"ECCENTRICITY":0.0001195,"INCLINATION":53.2172,"RA_OF_ASC_NODE":298.0002,"ARG_OF_PERICENTER":92.415,"MEAN_ANOMALY":267.6979,"EPHEMERIS_TYPE":0,"CLASSIFICATION_TYPE":"U","NORAD_CAT_ID":51135,"ELEMENT_SET_NO":999,"REV_AT_EPOCH":22876,"BSTAR":-6.435096e-6,"MEAN_MOTION_DOT":-3.9e-6,"MEAN_MOTION_DDOT":0},{"OBJECT_NAME":"MINOTAUR 4 R\/B","OBJECT_ID":"2020-046E","EPOCH":"2026-03-09T23:21:28.488960","MEAN_MOTION":15.06543892,"ECCENTRICITY":0.00095926,"INCLINATION":53.9792,"RA_OF_ASC_NODE":306.0413,"ARG_OF_PERICENTER":86.078,"MEAN_ANOMALY":274.1318,"EPHEMERIS_TYPE":0,"CLASSIFICATION_TYPE":"U","NORAD_CAT_ID":45877,"ELEMENT_SET_NO":999,"REV_AT_EPOCH":23396,"BSTAR":0.00016618262,"MEAN_MOTION_DOT":2.204e-5,"MEAN_MOTION_DDOT":0}]
